NORAD_CAT_ID,OBJECT_NAME,OBJECT_TYPE,EPOCH,MEAN_MOTION,ECCENTRICITY,INCLINATION,RA_OF_ASC_NODE,ARG_OF_PERICENTER,MEAN_ANOMALY,BSTAR,MEAN_MOTION_DOT,MEAN_MOTION_DDOT,TLE_LINE0,TLE_LINE1,TLE_LINE2,SEMIMAJOR_AXIS,PERIOD,APOGEE,PERIGEE,DECAYED
56450.0,STARLINK-5970,PAYLOAD,2023-09-03 03:12:50,14.99095694,0.0006078,70.0025,300.5247,210.0512,150.0299,0.0080046,0.00098735,0.0,0 STARLINK-5970,1 56450U 23064C   23246.13392040  .00098735  00000-0  80046-2 0  9996,2 56450  70.0025 300.5247 0006078 210.0512 150.0299 14.99095694 18011,6947.826,96.058,573.914,565.468,0.0
56450.0,STARLINK-5970,PAYLOAD,2023-09-03 14:00:01,14.9911569,0.0002802,69.9996,299.3934,276.3279,345.3383,0.0029348,0.00035827,0.0,0 STARLINK-5970,1 56450U 23064C   23246.58334491  .00035827  00000-0  29348-2 0  9992,2 56450  69.9996 299.3934 0002802 276.3279 345.3383 14.99115690 18077,6947.764,96.057,571.576,567.683,0.0
56450.0,STARLINK-5970,PAYLOAD,2023-09-04 04:00:00,14.99140799,0.0002807,69.9997,297.9204,267.5308,261.3962,0.00036545,4.362e-05,0.0,0 STARLINK-5970,1 56450U 23064C   23247.16667824  .00004362  00000-0  36545-3 0  9994,2 56450  69.9997 297.9204 0002807 267.5308 261.3962 14.99140799 18160,6947.687,96.055,571.502,567.601,0.0
56450.0,STARLINK-5970,PAYLOAD,2023-09-04 14:00:01,14.99137667,0.0002962,69.9997,296.8682,274.6819,342.3464,0.00024257,2.863e-05,0.0,0 STARLINK-5970,1 56450U 23064C   23247.58334491  .00002863  00000-0  24257-3 0  9992,2 56450  69.9997 296.8682 0002962 274.6819 342.3464 14.99137667  5620,6947.696,96.055,571.619,567.503,0.0
56450.0,STARLINK-5970,PAYLOAD,2023-09-05 03:16:11,14.99063018,0.0002651,69.9983,295.4725,275.5851,84.5006,0.0012362,0.00014971,0.0,0 STARLINK-5970,1 56450U 23064C   23248.13624303  .00014971  00000-0  12362-2 0  9994,2 56450  69.9983 295.4725 0002651 275.5851  84.5006 14.99063018 18314,6947.927,96.06,571.634,567.95,0.0
56450.0,STARLINK-5970,PAYLOAD,2023-09-05 12:52:41,14.99107001,0.0002963,69.9983,294.4614,272.7526,87.3294,0.0004463,5.344e-05,0.0,0 STARLINK-5970,1 56450U 23064C   23248.53659144  .00005344  00000-0  44630-3 0  9997,2 56450  69.9983 294.4614 0002963 272.7526  87.3294 14.99107001 18012,6947.791,96.057,571.715,567.597,0.0
56450.0,STARLINK-5970,PAYLOAD,2023-09-06 04:00:00,14.99154119,0.0003103,70.0004,292.8704,266.7349,252.9213,-0.00068202,-8.397e-05,0.0,0 STARLINK-5970,1 56450U 23064C   23249.16667824 -.00008397  00000-0 -68202-3 0  9995,2 56450  70.0004 292.8704 0003103 266.7349 252.9213 14.99154119 18466,6947.646,96.054,571.666,567.355,0.0
56450.0,STARLINK-5970,PAYLOAD,2023-09-06 08:00:01,14.99158204,0.0003141,70.0003,292.4496,269.9226,68.9684,-0.002728,-0.00033194,0.0,0 STARLINK-5970,1 56450U 23064C   23249.33334491 -.00033194  00000-0 -27280-2 0  9998,2 56450  70.0003 292.4496 0003141 269.9226  68.9684 14.99158204  5787,6947.633,96.054,571.68,567.316,0.0
56450.0,STARLINK-5970,PAYLOAD,2023-09-06 20:54:18,14.99182878,0.0002982,69.9986,291.0925,267.9246,92.1572,-0.00072274,-8.899e-05,0.0,0 STARLINK-5970,1 56450U 23064C   23249.87105057 -.00008899  00000-0 -72274-3 0  9999,2 56450  69.9986 291.0925 0002982 267.9246  92.1572 14.99182878 18219,6947.557,96.052,571.493,567.35,0.0
56450.0,STARLINK-5970,PAYLOAD,2023-09-07 08:06:54,14.99138789,0.0002915,69.9987,289.9134,269.6941,90.3884,4.225e-05,4.21e-06,0.0,0 STARLINK-5970,1 56450U 23064C   23250.33812900  .00000421  00000-0  42250-4 0  9997,2 56450  69.9987 289.9134 0002915 269.6941  90.3884 14.99138789 18640,6947.693,96.055,571.583,567.533,0.0
56450.0,STARLINK-5970,PAYLOAD,2023-09-07 12:55:09,14.99140416,0.0002931,69.9987,289.4081,270.5074,89.575,4.4072e-05,4.43e-06,0.0,0 STARLINK-5970,1 56450U 23064C   23250.53829978  .00000443  00000-0  44072-4 0  9990,2 56450  69.9987 289.4081 0002931 270.5074  89.5750 14.99140416 18318,6947.688,96.055,571.589,567.517,0.0
56450.0,STARLINK-5970,PAYLOAD,2023-09-08 09:44:13,14.99138683,0.0002795,69.9991,287.2187,268.3666,91.7173,-3.454e-06,-1.36e-06,0.0,0 STARLINK-5970,1 56450U 23064C   23251.40571347 -.00000136  00000-0 -34540-5 0  9992,2 56450  69.9991 287.2187 0002795 268.3666  91.7173 14.99138683 18807,6947.693,96.055,571.5,567.616,0.0
56450.0,STARLINK-5970,PAYLOAD,2023-09-08 12:56:23,14.99139377,0.0002871,69.999,286.8814,270.7892,89.2939,-1.9204e-06,-1.17e-06,0.0,0 STARLINK-5970,1 56450U 23064C   23251.53916098 -.00000117  00000-0 -19204-5 0  9991,2 56450  69.9990 286.8814 0002871 270.7892  89.2939 14.99139377 18466,6947.691,96.055,571.551,567.561,0.0
56450.0,STARLINK-5970,PAYLOAD,2023-09-09 09:45:28,14.99137786,0.0002888,69.9988,284.6915,268.1097,91.9731,-3.7381e-05,-5.49e-06,0.0,0 STARLINK-5970,1 56450U 23064C   23252.40657422 -.00000549  00000-0 -37381-4 0  9995,2 56450  69.9988 284.6915 0002888 268.1097  91.9731 14.99137786 18953,6947.696,96.055,571.567,567.555,0.0
56450.0,STARLINK-5970,PAYLOAD,2023-09-09 11:21:32,14.99138426,0.0002875,69.9989,284.523,267.9976,92.0855,-2.5463e-05,-4.04e-06,0.0,0 STARLINK-5970,1 56450U 23064C   23252.47329749 -.00000404  00000-0 -25463-4 0  9998,2 56450  69.9989 284.5230 0002875 267.9976  92.0855 14.99138426 18605,6947.694,96.055,571.556,567.562,0.0
56450.0,STARLINK-5970,PAYLOAD,2023-09-10 09:47:05,14.98868095,0.000274,69.9987,282.1656,272.2696,87.815,-0.0027986,-0.00033791,0.0,0 STARLINK-5970,1 56450U 23064C   23253.40770660 -.00033791  00000-0 -27986-2 0  9999,2 56450  69.9987 282.1656 0002740 272.2696  87.8150 14.98868095 19105,6948.529,96.072,572.298,568.49,0.0
56450.0,STARLINK-5970,PAYLOAD,2023-09-10 11:23:13,14.98838589,0.0003134,69.9982,281.9976,270.1247,89.9553,-0.0030904,-0.00037259,0.0,0 STARLINK-5970,1 56450U 23064C   23253.47446543 -.00037259  00000-0 -30904-2 0  9993,2 56450  69.9982 281.9976 0003134 270.1247  89.9553 14.98838589 18754,6948.621,96.074,572.663,568.308,0.0
56450.0,STARLINK-5970,PAYLOAD,2023-09-11 01:48:23,14.98661094,0.0002819,69.9984,280.482,268.8795,91.2042,-0.0043571,-0.00052141,0.0,0 STARLINK-5970,1 56450U 23064C   23254.07527234 -.00052141  00000-0 -43571-2 0  9998,2 56450  69.9984 280.4820 0002819 268.8795  91.2042 14.98661094 19204,6949.169,96.086,572.993,569.075,0.0
56450.0,STARLINK-5970,PAYLOAD,2023-09-11 09:48:58,14.98630661,0.0003281,69.9986,279.6417,271.2313,88.8471,-0.0042693,-0.00051061,0.0,0 STARLINK-5970,1 56450U 23064C   23254.40901332 -.00051061  00000-0 -42693-2 0  9994,2 56450  69.9986 279.6417 0003281 271.2313  88.8471 14.98630661 19255,6949.263,96.088,573.408,568.848,0.0
56450.0,STARLINK-5970,PAYLOAD,2023-09-11 11:25:05,14.98625716,0.0003244,69.9986,279.4733,271.7668,88.3119,-0.0042454,-0.00050771,0.0,0 STARLINK-5970,1 56450U 23064C   23254.47576226 -.00050771  00000-0 -42454-2 0  9993,2 56450  69.9986 279.4733 0003244 271.7668  88.3119 14.98625716 18901,6949.279,96.088,573.398,568.889,0.0
56450.0,STARLINK-5970,PAYLOAD,2023-09-12 01:50:10,14.98582275,0.0003422,69.9982,277.9581,266.4862,93.5905,-0.0039232,-0.00046899,0.0,0 STARLINK-5970,1 56450U 23064C   23255.07651014 -.00046899  00000-0 -39232-2 0  9995,2 56450  69.9982 277.9581 0003422 266.4862  93.5905 14.98582275 19359,6949.413,96.091,573.656,568.9,0.0
56450.0,STARLINK-5970,PAYLOAD,2023-09-12 09:50:49,14.98490726,0.0002969,69.9982,277.1165,268.1943,91.8876,-0.0025523,-0.00030541,0.0,0 STARLINK-5970,1 56450U 23064C   23255.41029208 -.00030541  00000-0 -25523-2 0  9992,2 56450  69.9982 277.1165 0002969 268.1943  91.8876 14.98490726 19406,6949.696,96.097,573.624,569.498,0.0
56450.0,STARLINK-5970,PAYLOAD,2023-09-12 13:03:04,14.98494538,0.0003041,69.9981,276.78,267.8881,92.1929,-0.0026589,-0.0003181,0.0,0 STARLINK-5970,1 56450U 23064C   23255.54379961 -.00031810  00000-0 -26589-2 0  9993,2 56450  69.9981 276.7800 0003041 267.8881  92.1929 14.98494538 19065,6949.684,96.096,573.663,569.436,0.0
56450.0,STARLINK-5970,PAYLOAD,2023-09-12 19:27:37,14.98403271,0.000302,69.9981,276.1067,274.6064,85.475,-0.0011643,-0.00013984,0.0,0 STARLINK-5970,1 56450U 23064C   23255.81084812 -.00013984  00000-0 -11643-2 0  9998,2 56450  69.9981 276.1067 0003020 274.6064  85.4750 14.98403271 19106,6949.966,96.102,573.93,569.732,0.0
56450.0,STARLINK-5970,PAYLOAD,2023-09-13 01:52:10,14.98333288,0.0002947,69.998,275.4333,272.5471,87.5351,6.4106e-05,6.72e-06,0.0,0 STARLINK-5970,1 56450U 23064C   23256.07789911  .00000672  00000-0  64106-4 0  9991,2 56450  69.9980 275.4333 0002947 272.5471  87.5351 14.98333288 19503,6950.183,96.107,574.096,570.0,0.0
56450.0,STARLINK-5970,PAYLOAD,2023-09-13 14:00:01,14.98333509,0.0003158,69.9996,274.1587,275.5918,290.0898,-0.0010613,-0.00012735,0.0,0 STARLINK-5970,1 56450U 23064C   23256.58334491 -.00012735  00000-0 -10613-2 0  9993,2 56450  69.9996 274.1587 0003158 275.5918 290.0898 14.98333509  5789,6950.182,96.107,574.242,569.852,0.0
56450.0,STARLINK-5970,PAYLOAD,2023-09-13 22:00:00,14.98290536,0.0003148,69.9998,273.3183,270.1828,292.9859,0.0057233,0.00068801,0.0,0 STARLINK-5970,1 56450U 23064C   23256.91667824  .00068801  00000-0  57233-2 0  9991,2 56450  69.9998 273.3183 0003148 270.1828 292.9859 14.98290536  5649,6950.315,96.11,574.368,569.992,0.0
56450.0,STARLINK-5970,PAYLOAD,2023-09-14 01:54:11,14.98322815,0.0002778,69.999,272.9075,277.0967,82.9876,6.9825e-05,7.4e-06,0.0,0 STARLINK-5970,1 56450U 23064C   23257.07930506  .00000740  00000-0  69825-4 0  9999,2 56450  69.9990 272.9075 0002778 277.0967  82.9876 14.98322815 19652,6950.215,96.107,574.011,570.149,0.0
56450.0,STARLINK-5970,PAYLOAD,2023-09-14 09:54:51,14.98387259,0.0002722,69.999,272.0657,271.6397,88.445,-0.0010849,-0.00013033,0.0,0 STARLINK-5970,1 56450U 23064C   23257.41309237 -.00013033  00000-0 -10849-2 0  9999,2 56450  69.9990 272.0657 0002722 271.6397  88.4450 14.98387259 19703,6950.016,96.103,573.773,569.989,0.0
56450.0,STARLINK-5970,PAYLOAD,2023-09-14 11:30:59,14.98386112,0.000271,69.999,271.8973,272.3155,87.7693,-0.0010627,-0.00012768,0.0,0 STARLINK-5970,1 56450U 23064C   23257.47985082 -.00012768  00000-0 -10627-2 0  9991,2 56450  69.9990 271.8973 0002710 272.3155  87.7693 14.98386112 19357,6950.019,96.103,573.768,570.001,0.0
